{"type": "FeatureCollection", "features": [ {"type": "Feature", "properties": {"norad_id": 34875, "name": "COSMOS 2251 DEB", "group": "cosmos-2251-debris", "lat": 71.15358828805222, "lon": -89.82531572502256, "alt_km": 733.2430226059023, "timestamp": "2025-12-18T15:47:11.620765+00:00", "meta": {"OBJECT_NAME": "COSMOS 2251 DEB", "OBJECT_ID": "1993-036ACN", "EPOCH": "2025-12-17T21:48:24.933024", "MEAN_MOTION": 14.4894347, "ECCENTRICITY": 0.00162374, "INCLINATION": 74.0435, "RA_OF_ASC_NODE": 148.5304, "ARG_OF_PERICENTER": 271.9052, "MEAN_ANOMALY": 242.1214, "EPHEMERIS_TYPE": 0, "CLASSIFICATION_TYPE": "U", "NORAD_CAT_ID": 34875, "ELEMENT_SET_NO": 999, "REV_AT_EPOCH": 87830, "BSTAR": 0.00038515305, "MEAN_MOTION_DOT": 1.434e-05, "MEAN_MOTION_DDOT": 0}, "tle": {"line1": "1 34875U 93036ACN 25351.90862191  .00001434  00000+0  38515-3 0  9996", "line2": "2 34875  74.0435 148.5304 0016237 271.9052 242.1214 14.48943470878308"}}, "geometry": {"type": "Point", "coordinates": [-89.82531572502256, 71.15358828805222]}}, {"type": "Feature", "properties": {"norad_id": 34878, "name": "COSMOS 2251 DEB", "group": "cosmos-2251-debris", "lat": 16.805584315342625, "lon": -147.04696905482345, "alt_km": 1344.9442254779833, "timestamp": "2025-12-18T15:47:11.620775+00:00", "meta": {"OBJECT_NAME": "COSMOS 2251 DEB", "OBJECT_ID": "1993-036ACR", "EPOCH": "2025-12-15T21:48:13.370976", "MEAN_MOTION": 13.44195012, "ECCENTRICITY": 0.04354662, "INCLINATION": 73.9648, "RA_OF_ASC_NODE": 42.2959, "ARG_OF_PERICENTER": 25.2, "MEAN_ANOMALY": 154.8462, "EPHEMERIS_TYPE": 0, "CLASSIFICATION_TYPE": "U", "NORAD_CAT_ID": 34878, "ELEMENT_SET_NO": 999, "REV_AT_EPOCH": 81315, "BSTAR": 0.00059672813, "MEAN_MOTION_DOT": 5.92e-06, "MEAN_MOTION_DDOT": 0}, "tle": {"line1": "1 34878U 93036ACR 25349.90848809  .00000592  00000+0  59673-3 0  9998", "line2": "2 34878  73.9648  42.2959 0435466  25.2000 154.8462 13.44195012813155"}}, "geometry": {"type": "Point", "coordinates": [-147.04696905482345, 16.805584315342625]}}, {"type": "Feature", "properties": {"norad_id": 34882, "name": "COSMOS 2251 DEB", "group": "cosmos-2251-debris", "lat": -45.12483189266609, "lon": -162.42138842973864, "alt_km": 642.0794507807623, "timestamp": "2025-12-18T15:47:11.620785+00:00", "meta": {"OBJECT_NAME": "COSMOS 2251 DEB", "OBJECT_ID": "1993-036ACV", "EPOCH": "2025-12-18T01:12:56.345760", "MEAN_MOTION": 14.61607051, "ECCENTRICITY": 0.00830708, "INCLINATION": 74.0456, "RA_OF_ASC_NODE": 215.4368, "ARG_OF_PERICENTER": 341.1734, "MEAN_ANOMALY": 18.6364, "EPHEMERIS_TYPE": 0, "CLASSIFICATION_TYPE": "U", "NORAD_CAT_ID": 34882, "ELEMENT_SET_NO": 999, "REV_AT_EPOCH": 88602, "BSTAR": 0.00011703078, "MEAN_MOTION_DOT": 5.78e-06, "MEAN_MOTION_DDOT": 0}, "tle": {"line1": "1 34882U 93036ACV 25352.05065215  .00000578  00000+0  11703-3 0  9991", "line2": "2 34882  74.0456 215.4368 0083070 341.1734  18.6364 14.61607051886026"}}, "geometry": {"type": "Point", "coordinates": [-162.42138842973864, -45.12483189266609]}}, {"type": "Feature", "properties": {"norad_id": 34883, "name": "COSMOS 2251 DEB", "group": "cosmos-2251-debris", "lat": 32.178350742312595, "lon": -138.57749575020816, "alt_km": 716.4189274886421, "timestamp": "2025-12-18T15:47:11.620795+00:00", "meta": {"OBJECT_NAME": "COSMOS 2251 DEB", "OBJECT_ID": "1993-036ACW", "EPOCH": "2025-12-16T03:33:44.508384", "MEAN_MOTION": 14.51615138, "ECCENTRICITY": 0.00951919, "INCLINATION": 74.1965, "RA_OF_ASC_NODE": 56.3649, "ARG_OF_PERICENTER": 240.9605, "MEAN_ANOMALY": 118.1996, "EPHEMERIS_TYPE": 0, "CLASSIFICATION_TYPE": "U", "NORAD_CAT_ID": 34883, "ELEMENT_SET_NO": 999, "REV_AT_EPOCH": 86489, "BSTAR": 0.0030222545, "MEAN_MOTION_DOT": 0.00012841, "MEAN_MOTION_DDOT": 0}, "tle": {"line1": "1 34883U 93036ACW 25350.14843181  .00012841  00000+0  30223-2 0  9999", "line2": "2 34883  74.1965  56.3649 0095191 240.9605 118.1996 14.51615138864899"}}, "geometry": {"type": "Point", "coordinates": [-138.57749575020816, 32.178350742312595]}}, {"type": "Feature", "properties": {"norad_id": 34884, "name": "COSMOS 2251 DEB", "group": "cosmos-2251-debris", "lat": -3.3056466487002814, "lon": -134.16767871001298, "alt_km": 601.1860062543728, "timestamp": "2025-12-18T15:47:11.620806+00:00", "meta": {"OBJECT_NAME": "COSMOS 2251 DEB", "OBJECT_ID": "1993-036ACX", "EPOCH": "2025-12-18T05:34:31.711008", "MEAN_MOTION": 14.90312585, "ECCENTRICITY": 0.00025395, "INCLINATION": 74.0175, "RA_OF_ASC_NODE": 45.7361, "ARG_OF_PERICENTER": 52.4399, "MEAN_ANOMALY": 9.1521, "EPHEMERIS_TYPE": 0, "CLASSIFICATION_TYPE": "U", "NORAD_CAT_ID": 34884, "ELEMENT_SET_NO": 999, "REV_AT_EPOCH": 87887, "BSTAR": 0.0021078931, "MEAN_MOTION_DOT": 0.00020516, "MEAN_MOTION_DDOT": 0}, "tle": {"line1": "1 34884U 93036ACX 25352.23231147  .00020516  00000+0  21079-2 0  9992", "line2": "2 34884  74.0175  45.7361 0002539  52.4399   9.1521 14.90312585878874"}}, "geometry": {"type": "Point", "coordinates": [-134.16767871001298, -3.3056466487002814]}}, {"type": "Feature", "properties": {"norad_id": 34885, "name": "COSMOS 2251 DEB", "group": "cosmos-2251-debris", "lat": -32.77282646279221, "lon": 161.2551447603594, "alt_km": 722.5274912391278, "timestamp": "2025-12-18T15:47:11.620816+00:00", "meta": {"OBJECT_NAME": "COSMOS 2251 DEB", "OBJECT_ID": "1993-036ACY", "EPOCH": "2025-12-17T22:17:00.500064", "MEAN_MOTION": 14.5152923, "ECCENTRICITY": 0.00151148, "INCLINATION": 74.0297, "RA_OF_ASC_NODE": 173.2519, "ARG_OF_PERICENTER": 258.5772, "MEAN_ANOMALY": 217.7076, "EPHEMERIS_TYPE": 0, "CLASSIFICATION_TYPE": "U", "NORAD_CAT_ID": 34885, "ELEMENT_SET_NO": 999, "REV_AT_EPOCH": 87554, "BSTAR": 0.00054133863, "MEAN_MOTION_DOT": 2.141e-05, "MEAN_MOTION_DDOT": 0}, "tle": {"line1": "1 34885U 93036ACY 25351.92847801  .00002141  00000+0  54134-3 0  9991", "line2": "2 34885  74.0297 173.2519 0015114 258.5772 217.7076 14.51529230875546"}}, "geometry": {"type": "Point", "coordinates": [161.2551447603594, -32.77282646279221]}}, {"type": "Feature", "properties": {"norad_id": 34886, "name": "COSMOS 2251 DEB", "group": "cosmos-2251-debris", "lat": 62.21779363578617, "lon": -44.96876971243591, "alt_km": 452.7030493620123, "timestamp": "2025-12-18T15:47:11.620825+00:00", "meta": {"OBJECT_NAME": "COSMOS 2251 DEB", "OBJECT_ID": "1993-036ACZ", "EPOCH": "2025-12-17T20:34:53.099328", "MEAN_MOTION": 15.39300916, "ECCENTRICITY": 0.00309575, "INCLINATION": 73.9497, "RA_OF_ASC_NODE": 169.8917, "ARG_OF_PERICENTER": 352.7247, "MEAN_ANOMALY": 7.3506, "EPHEMERIS_TYPE": 0, "CLASSIFICATION_TYPE": "U", "NORAD_CAT_ID": 34886, "ELEMENT_SET_NO": 999, "REV_AT_EPOCH": 63077, "BSTAR": 0.001400083, "MEAN_MOTION_DOT": 0.00055889, "MEAN_MOTION_DDOT": 0}, "tle": {"line1": "1 34886U 93036ACZ 25351.85755902  .00055889  00000+0  14001-2 0  9999", "line2": "2 34886  73.9497 169.8917 0030957 352.7247   7.3506 15.39300916630776"}}, "geometry": {"type": "Point", "coordinates": [-44.96876971243591, 62.21779363578617]}}, {"type": "Feature", "properties": {"norad_id": 34907, "name": "COSMOS 2251 DEB", "group": "cosmos-2251-debris", "lat": -11.819636555540676, "lon": -141.09936484456347, "alt_km": 436.7728232956315, "timestamp": "2025-12-18T15:47:11.620835+00:00", "meta": {"OBJECT_NAME": "COSMOS 2251 DEB", "OBJECT_ID": "1993-036ADC", "EPOCH": "2025-12-18T02:32:53.800800", "MEAN_MOTION": 15.47692445, "ECCENTRICITY": 0.00196953, "INCLINATION": 73.9694, "RA_OF_ASC_NODE": 36.6616, "ARG_OF_PERICENTER": 333.5312, "MEAN_ANOMALY": 26.4892, "EPHEMERIS_TYPE": 0, "CLASSIFICATION_TYPE": "U", "NORAD_CAT_ID": 34907, "ELEMENT_SET_NO": 999, "REV_AT_EPOCH": 88056, "BSTAR": 0.0061125728, "MEAN_MOTION_DOT": 0.00332113, "MEAN_MOTION_DDOT": 0}, "tle": {"line1": "1 34907U 93036ADC 25352.10617825  .00332113  00000+0  61126-2 0  9991", "line2": "2 34907  73.9694  36.6616 0019695 333.5312  26.4892 15.47692445880566"}}, "geometry": {"type": "Point", "coordinates": [-141.09936484456347, -11.819636555540676]}}, {"type": "Feature", "properties": {"norad_id": 34908, "name": "COSMOS 2251 DEB", "group": "cosmos-2251-debris", "lat": 73.7823446410781, "lon": 92.11727649709212, "alt_km": 745.1447769529668, "timestamp": "2025-12-18T15:47:11.620845+00:00", "meta": {"OBJECT_NAME": "COSMOS 2251 DEB", "OBJECT_ID": "1993-036ADD", "EPOCH": "2025-12-17T20:10:36.409152", "MEAN_MOTION": 14.37412931, "ECCENTRICITY": 0.00402787, "INCLINATION": 74.0579, "RA_OF_ASC_NODE": 14.2828, "ARG_OF_PERICENTER": 28.7986, "MEAN_ANOMALY": 151.4446, "EPHEMERIS_TYPE": 0, "CLASSIFICATION_TYPE": "U", "NORAD_CAT_ID": 34908, "ELEMENT_SET_NO": 999, "REV_AT_EPOCH": 87352, "BSTAR": 0.00041959022, "MEAN_MOTION_DOT": 1.24e-05, "MEAN_MOTION_DDOT": 0}, "tle": {"line1": "1 34908U 93036ADD 25351.84069918  .00001240  00000+0  41959-3 0  9993", "line2": "2 34908  74.0579  14.2828 0040278  28.7986 151.4446 14.37412931873529"}}, "geometry": {"type": "Point", "coordinates": [92.11727649709212, 73.7823446410781]}}, {"type": "Feature", "properties": {"norad_id": 34909, "name": "COSMOS 2251 DEB", "group": "cosmos-2251-debris", "lat": 1.5122923804727888, "lon": 65.37099636161786, "alt_km": 694.655574319564, "timestamp": "2025-12-18T15:47:11.620855+00:00", "meta": {"OBJECT_NAME": "COSMOS 2251 DEB", "OBJECT_ID": "1993-036ADE", "EPOCH": "2025-12-18T06:01:53.569344", "MEAN_MOTION": 14.77881154, "ECCENTRICITY": 0.00841448, "INCLINATION": 74.015, "RA_OF_ASC_NODE": 65.7361, "ARG_OF_PERICENTER": 200.3056, "MEAN_ANOMALY": 159.4768, "EPHEMERIS_TYPE": 0, "CLASSIFICATION_TYPE": "U", "NORAD_CAT_ID": 34909, "ELEMENT_SET_NO": 999, "REV_AT_EPOCH": 66933, "BSTAR": 0.00045425965, "MEAN_MOTION_DOT": 3.432e-05, "MEAN_MOTION_DDOT": 0}, "tle": {"line1": "1 34909U 93036ADE 25352.25131446  .00003432  00000+0  45426-3 0  9994", "line2": "2 34909  74.0150  65.7361 0084144 200.3056 159.4768 14.77881154669332"}}, "geometry": {"type": "Point", "coordinates": [65.37099636161786, 1.5122923804727888]}}]}